{
  "links" : {
    "next" : "https://api.nasa.gov/neo/rest/v1/feed?start_date=1998-11-09&end_date=1998-11-09&detailed=true&api_key=t0TVs3DtDT2H8Oy2Zy8m2eVrNsAVKAexjcZXUckd",
    "prev" : "https://api.nasa.gov/neo/rest/v1/feed?start_date=1998-11-07&end_date=1998-11-07&detailed=true&api_key=t0TVs3DtDT2H8Oy2Zy8m2eVrNsAVKAexjcZXUckd",
    "self" : "https://api.nasa.gov/neo/rest/v1/feed?start_date=1998-11-08&end_date=1998-11-08&detailed=true&api_key=t0TVs3DtDT2H8Oy2Zy8m2eVrNsAVKAexjcZXUckd"
  },
  "element_count" : 8,
  "near_earth_objects" : {
    "1998-11-08" : [ {
      "links" : {
        "self" : "https://api.nasa.gov/neo/rest/v1/neo/2137175?api_key=t0TVs3DtDT2H8Oy2Zy8m2eVrNsAVKAexjcZXUckd"
      },
      "neo_reference_id" : "2137175",
      "name" : "137175 (1999 JA11)",
      "nasa_jpl_url" : "http://ssd.jpl.nasa.gov/sbdb.cgi?sstr=2137175",
      "absolute_magnitude_h" : 18.3,
      "estimated_diameter" : {
        "kilometers" : {
          "estimated_diameter_min" : 0.5815070396,
          "estimated_diameter_max" : 1.30028927
        },
        "meters" : {
          "estimated_diameter_min" : 581.5070396458,
          "estimated_diameter_max" : 1300.2892700427
        },
        "miles" : {
          "estimated_diameter_min" : 0.3613316107,
          "estimated_diameter_max" : 0.807962044
        },
        "feet" : {
          "estimated_diameter_min" : 1907.8315559515,
          "estimated_diameter_max" : 4266.0410487267
        }
      },
      "is_potentially_hazardous_asteroid" : false,
      "close_approach_data" : [ {
        "close_approach_date" : "1998-11-08",
        "epoch_date_close_approach" : 910512000000,
        "relative_velocity" : {
          "kilometers_per_second" : "9.8567475078",
          "kilometers_per_hour" : "35484.291028184",
          "miles_per_hour" : "22048.5585002625"
        },
        "miss_distance" : {
          "astronomical" : "0.2780532027",
          "lunar" : "108.162689209",
          "kilometers" : "41596168",
          "miles" : "25846660"
        },
        "orbiting_body" : "Earth"
      } ],
      "orbital_data" : {
        "orbit_id" : "68",
        "orbit_determination_date" : "2017-04-06 09:27:54",
        "orbit_uncertainty" : "0",
        "minimum_orbit_intersection" : ".104956",
        "jupiter_tisserand_invariant" : "5.013",
        "epoch_osculation" : "2458000.5",
        "eccentricity" : ".3411008587657278",
        "semi_major_axis" : "1.26121243550978",
        "inclination" : "16.43149011376786",
        "ascending_node_longitude" : "116.263827235875",
        "orbital_period" : "517.3456398145159",
        "perihelion_distance" : ".8310117906713791",
        "perihelion_argument" : "328.29043808804",
        "aphelion_distance" : "1.691413080348181",
        "perihelion_time" : "2457875.981740771231",
        "mean_anomaly" : "86.64724291177626",
        "mean_motion" : ".6958597353387783",
        "equinox" : "J2000"
      }
    }, {
      "links" : {
        "self" : "https://api.nasa.gov/neo/rest/v1/neo/2162173?api_key=t0TVs3DtDT2H8Oy2Zy8m2eVrNsAVKAexjcZXUckd"
      },
      "neo_reference_id" : "2162173",
      "name" : "162173 Ryugu (1999 JU3)",
      "nasa_jpl_url" : "http://ssd.jpl.nasa.gov/sbdb.cgi?sstr=2162173",
      "absolute_magnitude_h" : 19.3,
      "estimated_diameter" : {
        "kilometers" : {
          "estimated_diameter_min" : 0.3669061375,
          "estimated_diameter_max" : 0.8204270649
        },
        "meters" : {
          "estimated_diameter_min" : 366.9061375314,
          "estimated_diameter_max" : 820.4270648822
        },
        "miles" : {
          "estimated_diameter_min" : 0.2279848336,
          "estimated_diameter_max" : 0.5097895857
        },
        "feet" : {
          "estimated_diameter_min" : 1203.7603322587,
          "estimated_diameter_max" : 2691.6899315481
        }
      },
      "is_potentially_hazardous_asteroid" : true,
      "close_approach_data" : [ {
        "close_approach_date" : "1998-11-08",
        "epoch_date_close_approach" : 910512000000,
        "relative_velocity" : {
          "kilometers_per_second" : "11.0658723116",
          "kilometers_per_hour" : "39837.140321638",
          "miles_per_hour" : "24753.2497737422"
        },
        "miss_distance" : {
          "astronomical" : "0.2418663337",
          "lunar" : "94.0860061646",
          "kilometers" : "36182688",
          "miles" : "22482880"
        },
        "orbiting_body" : "Earth"
      } ],
      "orbital_data" : {
        "orbit_id" : "117",
        "orbit_determination_date" : "2017-04-06 09:26:35",
        "orbit_uncertainty" : "0",
        "minimum_orbit_intersection" : ".00132059",
        "jupiter_tisserand_invariant" : "5.308",
        "epoch_osculation" : "2458000.5",
        "eccentricity" : ".1902842554038815",
        "semi_major_axis" : "1.189560559495507",
        "inclination" : "5.883903317829792",
        "ascending_node_longitude" : "251.5911063365942",
        "orbital_period" : "473.8907826636587",
        "perihelion_distance" : ".9632059141740799",
        "perihelion_argument" : "211.4467739786354",
        "aphelion_distance" : "1.415915204816935",
        "perihelion_time" : "2457797.751480023557",
        "mean_anomaly" : "154.0217068187274",
        "mean_motion" : ".7596687109559334",
        "equinox" : "J2000"
      }
    }, {
      "links" : {
        "self" : "https://api.nasa.gov/neo/rest/v1/neo/3297628?api_key=t0TVs3DtDT2H8Oy2Zy8m2eVrNsAVKAexjcZXUckd"
      },
      "neo_reference_id" : "3297628",
      "name" : "(2005 VK1)",
      "nasa_jpl_url" : "http://ssd.jpl.nasa.gov/sbdb.cgi?sstr=3297628",
      "absolute_magnitude_h" : 22.6,
      "estimated_diameter" : {
        "kilometers" : {
          "estimated_diameter_min" : 0.0802703167,
          "estimated_diameter_max" : 0.1794898848
        },
        "meters" : {
          "estimated_diameter_min" : 80.2703167283,
          "estimated_diameter_max" : 179.4898847799
        },
        "miles" : {
          "estimated_diameter_min" : 0.049877647,
          "estimated_diameter_max" : 0.1115298092
        },
        "feet" : {
          "estimated_diameter_min" : 263.3540659348,
          "estimated_diameter_max" : 588.8775935812
        }
      },
      "is_potentially_hazardous_asteroid" : false,
      "close_approach_data" : [ {
        "close_approach_date" : "1998-11-08",
        "epoch_date_close_approach" : 910512000000,
        "relative_velocity" : {
          "kilometers_per_second" : "13.6661399066",
          "kilometers_per_hour" : "49198.1036637863",
          "miles_per_hour" : "30569.7883570899"
        },
        "miss_distance" : {
          "astronomical" : "0.0699496634",
          "lunar" : "27.2104187012",
          "kilometers" : "10464321",
          "miles" : "6502227.5"
        },
        "orbiting_body" : "Earth"
      } ],
      "orbital_data" : {
        "orbit_id" : "8",
        "orbit_determination_date" : "2017-04-06 09:09:57",
        "orbit_uncertainty" : "8",
        "minimum_orbit_intersection" : ".0663006",
        "jupiter_tisserand_invariant" : "7.640",
        "epoch_osculation" : "2453679.5",
        "eccentricity" : ".4270432630344322",
        "semi_major_axis" : ".7412637808488117",
        "inclination" : "24.62010895646877",
        "ascending_node_longitude" : "223.7424362794439",
        "orbital_period" : "233.1082250275328",
        "perihelion_distance" : ".4247120771058949",
        "perihelion_argument" : "358.5470664502998",
        "aphelion_distance" : "1.057815484591729",
        "perihelion_time" : "2453566.566624899974",
        "mean_anomaly" : "174.4083248508602",
        "mean_motion" : "1.544347051492841",
        "equinox" : "J2000"
      }
    } ]
  }
}